NORAD_CAT_ID,OBJECT_NAME,OBJECT_TYPE,EPOCH,MEAN_MOTION,ECCENTRICITY,INCLINATION,RA_OF_ASC_NODE,ARG_OF_PERICENTER,MEAN_ANOMALY,BSTAR,MEAN_MOTION_DOT,MEAN_MOTION_DDOT,TLE_LINE0,TLE_LINE1,TLE_LINE2,SEMIMAJOR_AXIS,PERIOD,APOGEE,PERIGEE,DECAYED
53912.0,STARLINK-5059,PAYLOAD,2022-11-03 22:00:00,15.73239491,0.0003136,53.2162,55.2756,16.3147,141.0565,0.0016,0.00230614,0.0,0 STARLINK-5059,1 53912U 22119AC  22307.91667824  .00230614  00000-0  16000-2 0  9997,2 53912  53.2162  55.2756 0003136  16.3147 141.0565 15.73239491  6727,6727.783,91.531,351.75699999999995,347.538,0.0
53912.0,STARLINK-5059,PAYLOAD,2022-11-04 00:00:00,15.73283789,0.0003003999999999,53.2163,54.8626,16.7367,252.8826,0.00037064,0.00051914,0.0,0 STARLINK-5059,1 53912U 22119AC  22308.00001157  .00051914  00000-0  37064-3 0  9997,2 53912  53.2163  54.8626 0003004  16.7367 252.8826 15.73283789  6732,6727.656,91.528,351.542,347.5,0.0
53912.0,STARLINK-5059,PAYLOAD,2022-11-04 22:00:01,15.73240127,0.0003149,53.2167,50.3268,9.0223,55.2642,-0.00068642,-0.0009606,0.0,0 STARLINK-5059,1 53912U 22119AC  22308.91668981 -.00096060  00000-0 -68642-3 0  9990,2 53912  53.2167  50.3268 0003149   9.0223  55.2642 15.73240127  6881,6727.781,91.531,351.764,347.527,0.0
53912.0,STARLINK-5059,PAYLOAD,2022-11-05 14:00:01,15.73078937,0.0003421,53.2173,47.0286,15.2488,226.8245,0.00050244,0.00070133,0.0,0 STARLINK-5059,1 53912U 22119AC  22309.58335648  .00070133  00000-0  50244-3 0  9995,2 53912  53.2173  47.0286 0003421  15.2488 226.8245 15.73078937  1301,6728.24,91.54,352.407,347.80400000000014,0.0
53912.0,STARLINK-5059,PAYLOAD,2022-11-05 22:00:01,15.73155401,0.000341,53.2171,45.3786,14.7672,316.1179,0.00033627,0.00046755,0.0,0 STARLINK-5059,1 53912U 22119AC  22309.91668981  .00046755  00000-0  33627-3 0  9990,2 53912  53.2171  45.3786 0003410  14.7672 316.1179 15.73155401  7039,6728.022,91.536,352.182,347.593,0.0
53912.0,STARLINK-5059,PAYLOAD,2022-11-06 14:00:01,15.73169838,0.0003498,53.2173,42.0809,12.7042,135.9407,0.00050419,0.00070661,0.0,0 STARLINK-5059,1 53912U 22119AC  22310.58334491  .00070661  00000-0  50419-3 0  9992,2 53912  53.2173  42.0809 0003498  12.7042 135.9407 15.73169838  7148,6727.981,91.535,352.2,347.49300000000005,0.0
53912.0,STARLINK-5059,PAYLOAD,2022-11-07 06:00:00,15.7318858,0.0003333,53.2171,38.7799,8.5994,317.9465,0.00022405,0.00030929,0.0,0 STARLINK-5059,1 53912U 22119AC  22311.25001157  .00030929  00000-0  22405-3 0  9994,2 53912  53.2171  38.7799 0003333   8.5994 317.9465 15.73188580  7245,6727.928000000001,91.534,352.035,347.55,0.0
53912.0,STARLINK-5059,PAYLOAD,2022-11-07 22:00:00,15.73282702,0.0003611,53.2158,35.482,4.015,140.3991,-0.00092179,-0.00128546,0.0,0 STARLINK-5059,1 53912U 22119AC  22311.91667824 -.00128546  00000-0 -92179-3 0  9996,2 53912  53.2158  35.4820 0003611   4.0150 140.3991 15.73282702  1307,6727.659000000002,91.528,351.954,347.095,0.0
53912.0,STARLINK-5059,PAYLOAD,2022-11-08 06:00:00,15.73231284,0.0003485,53.2159,33.8316,3.0163,230.4472,0.00079052,0.00111988,0.0,0 STARLINK-5059,1 53912U 22119AC  22312.25001157  .00111988  00000-0  79052-3 0  9990,2 53912  53.2159  33.8316 0003485   3.0163 230.4472 15.73231284  7403,6727.806,91.531,352.016,347.326,0.0
53912.0,STARLINK-5059,PAYLOAD,2022-11-08 14:00:01,15.73312807,0.0003836,53.2158,32.1841,3.7017,318.7661,-2.583e-05,-4.268e-05,0.0,0 STARLINK-5059,1 53912U 22119AC  22312.58334491 -.00004268  00000-0 -25830-4 0  9996,2 53912  53.2158  32.1841 0003836   3.7017 318.7661 15.73312807  1306,6727.574000000001,91.527,352.019,346.858,0.0
53912.0,STARLINK-5059,PAYLOAD,2022-11-08 22:00:00,15.73360554,0.0003768,53.2159,30.533,1.8078,49.7152,-0.0012966,-0.00180084,0.0,0 STARLINK-5059,1 53912U 22119AC  22312.91667824 -.00180084  00000-0 -12966-2 0  9997,2 53912  53.2159  30.5330 0003768   1.8078  49.7152 15.73360554  7519,6727.437,91.524,351.837,346.76800000000014,0.0
53912.0,STARLINK-5059,PAYLOAD,2022-11-09 14:00:01,15.73125668,0.0004056,53.2162,27.2352,2.8796,226.5913,-9.9922e-05,-0.00014585,0.0,0 STARLINK-5059,1 53912U 22119AC  22313.58334491 -.00014585  00000-0 -99922-4 0  9993,2 53912  53.2162  27.2352 0004056   2.8796 226.5913 15.73125668  7615,6728.107,91.538,352.701,347.24300000000005,0.0
53912.0,STARLINK-5059,PAYLOAD,2022-11-09 22:00:01,15.73098647,0.0003952,53.2158,25.5843,1.0074,317.3563,0.00025968,0.00035832,0.0,0 STARLINK-5059,1 53912U 22119AC  22313.91668981  .00035832  00000-0  25968-3 0  9998,2 53912  53.2158  25.5843 0003952   1.0074 317.3563 15.73098647  1306,6728.184,91.539,352.708,347.39,0.0
53912.0,STARLINK-5059,PAYLOAD,2022-11-10 06:00:00,15.73175909,0.0003888,53.2157,23.9348,1.2422,45.8766,-0.00028563,-0.00040495,0.0,0 STARLINK-5059,1 53912U 22119AC  22314.25001157 -.00040495  00000-0 -28563-3 0  9999,2 53912  53.2157  23.9348 0003888   1.2422  45.8766 15.73175909  7721,6727.964,91.535,352.445,347.213,0.0
53912.0,STARLINK-5059,PAYLOAD,2022-11-10 14:00:01,15.73099444,0.0004203,53.2156,22.2874,0.4085,135.5995,0.00068765,0.0009662,0.0,0 STARLINK-5059,1 53912U 22119AC  22314.58334491  .00096620  00000-0  68765-3 0  9992,2 53912  53.2156  22.2874 0004203   0.4085 135.5995 15.73099444  1302,6728.182,91.539,352.875,347.219,0.0
53912.0,STARLINK-5059,PAYLOAD,2022-11-10 20:00:01,15.73171682,0.0004177,53.2153,21.0492,1.1708,111.4592,6.257e-05,8.159e-05,0.0,0 STARLINK-5059,1 53912U 22119AC  22314.83334491  .00008159  00000-0  62570-4 0  9999,2 53912  53.2153  21.0492 0004177   1.1708 111.4592 15.73171682  7815,6727.976,91.535,352.651,347.031,0.0
53912.0,STARLINK-5059,PAYLOAD,2022-11-10 22:00:00,15.73182979,0.0004102,53.2156,20.6363,1.6795,223.1711,-6.542600000000001e-05,-9.794e-05,0.0,0 STARLINK-5059,1 53912U 22119AC  22314.91667824 -.00009794  00000-0 -65426-4 0  9998,2 53912  53.2156  20.6363 0004102   1.6795 223.1711 15.73182979  1302,6727.944,91.534,352.569,347.0490000000001,0.0
53912.0,STARLINK-5059,PAYLOAD,2022-11-11 14:00:01,15.73158166,0.0004448,53.2157,17.3389,7.9003,34.7664,0.00074083,0.00104507,0.0,0 STARLINK-5059,1 53912U 22119AC  22315.58334491  .00104507  00000-0  74083-3 0  9997,2 53912  53.2157  17.3389 0004448   7.9003  34.7664 15.73158166  1302,6728.014,91.536,352.872,346.88699999999994,0.0
53912.0,STARLINK-5059,PAYLOAD,2022-11-11 22:00:00,15.73250153,0.0004304,53.2155,15.6876,7.5534,124.0407,0.00012834,0.00017471,0.0,0 STARLINK-5059,1 53912U 22119AC  22315.91667824  .00017471  00000-0  12834-3 0  9992,2 53912  53.2155  15.6876 0004304   7.5534 124.0407 15.73250153  1305,6727.752,91.53,352.51300000000015,346.722,0.0
53912.0,STARLINK-5059,PAYLOAD,2022-11-12 14:00:01,15.73209925,0.0004513,53.2151,12.3901,4.0832,305.5225,0.00043124,0.0006039,0.0,0 STARLINK-5059,1 53912U 22119AC  22316.58334491  .00060390  00000-0  43124-3 0  9991,2 53912  53.2151  12.3901 0004513   4.0832 305.5225 15.73209925  1304,6727.8669999999975,91.533,352.76800000000014,346.696,0.0
53912.0,STARLINK-5059,PAYLOAD,2022-11-12 22:00:00,15.73248118,0.0004215,53.2152,10.7385,0.4334,38.1424,-0.00066169,-0.00092718,0.0,0 STARLINK-5059,1 53912U 22119AC  22316.91667824 -.00092718  00000-0 -66169-3 0  9992,2 53912  53.2152  10.7385 0004215   0.4334  38.1424 15.73248118  8145,6727.7580000000025,91.53,352.459,346.787,0.0
53912.0,STARLINK-5059,PAYLOAD,2022-11-13 14:00:01,15.73144557,0.0004395,53.2153,7.4411,356.2076,220.2219,-0.0002827,-0.00040041,0.0,0 STARLINK-5059,1 53912U 22119AC  22317.58334491 -.00040041  00000-0 -28270-3 0  9990,2 53912  53.2153   7.4411 0004395 356.2076 220.2219 15.73144557  1302,6728.053000000001,91.536,352.875,346.961,0.0
53912.0,STARLINK-5059,PAYLOAD,2022-11-13 22:00:00,15.73087607,0.0004175,53.2152,5.7898,354.5951,310.6872,0.00055368,0.00077457,0.0,0 STARLINK-5059,1 53912U 22119AC  22317.91667824  .00077457  00000-0  55368-3 0  9993,2 53912  53.2152   5.7898 0004175 354.5951 310.6872 15.73087607  1301,6728.215999999999,91.54,352.89,347.272,0.0
53912.0,STARLINK-5059,PAYLOAD,2022-11-14 14:00:01,15.73162235,0.0004466,53.2147,2.4926,357.3393,125.6645,0.00082931,0.00117262,0.0,0 STARLINK-5059,1 53912U 22119AC  22318.58334491  .00117262  00000-0  82931-3 0  9993,2 53912  53.2147   2.4926 0004466 357.3393 125.6645 15.73162235  8406,6728.003000000002,91.535,352.87300000000016,346.86300000000006,0.0
53912.0,STARLINK-5059,PAYLOAD,2022-11-14 22:00:00,15.73215063,0.0004234,53.2149,0.8414,357.346,214.5674,0.00035525,0.00049582,0.0,0 STARLINK-5059,1 53912U 22119AC  22318.91667824  .00049582  00000-0  35525-3 0  9995,2 53912  53.2149   0.8414 0004234 357.3460 214.5674 15.73215063  8453,6727.852,91.532,352.566,346.869,0.0
53912.0,STARLINK-5059,PAYLOAD,2022-11-15 12:00:00,15.73218084,0.0004455,53.2152,357.9564,357.9718,279.6566,0.00044298,0.00062084,0.0,0 STARLINK-5059,1 53912U 22119AC  22319.50001157  .00062084  00000-0  44298-3 0  9991,2 53912  53.2152 357.9564 0004455 357.9718 279.6566 15.73218084  8544,6727.844,91.532,352.706,346.711,0.0
53912.0,STARLINK-5059,PAYLOAD,2022-11-15 14:00:01,15.73321331,0.000422,53.2166,357.5245,355.7905,34.0988,-0.001252,-0.00173772,0.0,0 STARLINK-5059,1 53912U 22119AC  22319.58334491 -.00173772  00000-0 -12520-2 0  9990,2 53912  53.2166 357.5245 0004220 355.7905  34.0988 15.73321331  1303,6727.549,91.526,352.25300000000016,346.575,0.0
53912.0,STARLINK-5059,PAYLOAD,2022-11-15 22:00:00,15.73202051,0.0004093,53.2175,355.8677,355.17800000000005,123.7135,3.3407e-05,4.068e-05,0.0,0 STARLINK-5059,1 53912U 22119AC  22319.91667824  .00004068  00000-0  33407-4 0  9994,2 53912  53.2175 355.8677 0004093 355.1780 123.7135 15.73202051  8614,6727.889,91.533,352.5080000000001,347.001,0.0
53912.0,STARLINK-5059,PAYLOAD,2022-11-16 14:00:01,15.73202851,0.0004253999999999,53.2172,352.5705,355.0555,301.7684,2.7271e-05,3.206e-05,0.0,0 STARLINK-5059,1 53912U 22119AC  22320.58335648  .00003206  00000-0  27271-4 0  9990,2 53912  53.2172 352.5705 0004254 355.0555 301.7684 15.73202851  1309,6727.887,91.533,352.61400000000015,346.89,0.0
